[{"OBJECT_NAME":"STARLINK-32832","OBJECT_ID":"2025-034M","EPOCH":"2026-03-09T22:17:33.097920","MEAN_MOTION":15.30206514,"ECCENTRICITY":0.00010809,"INCLINATION":53.1586,"RA_OF_ASC_NODE":256.9969,"ARG_OF_PERICENTER":91.3439,"MEAN_ANOMALY":268.7685,"EPHEMERIS_TYPE":0,"CLASSIFICATION_TYPE":"U","NORAD_CAT_ID":63040,"ELEMENT_SET_NO":999,"REV_AT_EPOCH":5912,"BSTAR":0.0010898265,"MEAN_MOTION_DOT":0.00032064,"MEAN_MOTION_DDOT":0},{"OBJECT_NAME":"SPACEMOBILE-001 DEB","OBJECT_ID":"2024-163F","EPOCH":"2026-03-09T07:17:56.452704","MEAN_MOTION":15.32884299,"ECCENTRICITY":0.00071876,"INCLINATION":52.9956,"RA_OF_ASC_NODE":27.518,"ARG_OF_PERICENTER":196.7865,"MEAN_ANOMALY":163.2898,"EPHEMERIS_TYPE":0,"CLASSIFICATION_TYPE":"U","NORAD_CAT_ID":62369,"ELEMENT_SET_NO":999,"REV_AT_EPOCH":7117,"BSTAR":0.00044817004,"MEAN_MOTION_DOT":0.00014099,"MEAN_MOTION_DDOT":0}]
